{
    "links": {
        "self": "http://www.neowsapp.com/rest/v1/neo/54016453?api_key=iIulBulltgU6a56xZRHN4H3l9WmuAYTsLGpBGhQ2"
    },
    "id": "54016453",
    "neo_reference_id": "54016453",
    "name": "(2020 GT)",
    "designation": "2020 GT",
    "nasa_jpl_url": "http://ssd.jpl.nasa.gov/sbdb.cgi?sstr=54016453",
    "absolute_magnitude_h": 25.801,
    "estimated_diameter": {
        "kilometers": {
            "estimated_diameter_min": 0.0183804008,
            "estimated_diameter_max": 0.0410998256
        },
        "meters": {
            "estimated_diameter_min": 18.3804007703,
            "estimated_diameter_max": 41.0998255762
        },
        "miles": {
            "estimated_diameter_min": 0.011421048,
            "estimated_diameter_max": 0.0255382397
        },
        "feet": {
            "estimated_diameter_min": 60.3031540634,
            "estimated_diameter_max": 134.8419517433
        }
    },
    "is_potentially_hazardous_asteroid": false,
    "close_approach_data": [
        {
            "close_approach_date": "2020-03-28",
            "close_approach_date_full": "2020-Mar-28 15:35",
            "epoch_date_close_approach": 1585409700000,
            "relative_velocity": {
                "kilometers_per_second": "11.4408132713",
                "kilometers_per_hour": "41186.9277766699",
                "miles_per_hour": "25591.9552065647"
            },
            "miss_distance": {
                "astronomical": "0.0294668623",
                "lunar": "11.4626094347",
                "kilometers": "4408179.835663301",
                "miles": "2739115.9353875138"
            },
            "orbiting_body": "Earth"
        }
    ],
    "orbital_data": {
        "orbit_id": "2",
        "orbit_determination_date": "2020-04-16 06:09:25",
        "first_observation_date": "2020-04-02",
        "last_observation_date": "2020-04-15",
        "data_arc_in_days": 13,
        "observations_used": 22,
        "orbit_uncertainty": "8",
        "minimum_orbit_intersection": ".0173906",
        "jupiter_tisserand_invariant": "4.562",
        "epoch_osculation": "2458943.5",
        "eccentricity": ".4102949345648153",
        "semi_major_axis": "1.440054433156561",
        "inclination": "8.613931202483124",
        "ascending_node_longitude": "191.9853998824206",
        "orbital_period": "631.199708400771",
        "perihelion_distance": ".8492073937348176",
        "perihelion_argument": "291.8051098860699",
        "aphelion_distance": "2.030901472578304",
        "perihelion_time": "2458889.631446738957",
        "mean_anomaly": "30.72352365800268",
        "mean_motion": ".5703424688077062",
        "equinox": "J2000",
        "orbit_class": {
            "orbit_class_type": "APO",
            "orbit_class_description": "Near-Earth asteroid orbits which cross the Earth’s orbit similar to that of 1862 Apollo",
            "orbit_class_range": "a (semi-major axis) > 1.0 AU; q (perihelion) < 1.017 AU"
        }
    },
    "is_sentry_object": false
}